id,name,state_id,state_code,state_name,country_id,country_code,country_name,latitude,longitude,wikiDataId
110972,Aberdeen,1436,FL,Florida,233,US,United States,26.55063,-80.14866,Q4666865
111084,Alachua,1436,FL,Florida,233,US,United States,29.75163,-82.42483,Q985175
111085,Alachua County,1436,FL,Florida,233,US,United States,29.67476,-82.3577,Q488826
111086,Alafaya,1436,FL,Florida,233,US,United States,28.5641,-81.2114,Q4705552
111177,Allapattah,1436,FL,Florida,233,US,United States,25.81454,-80.22394,Q1660549
111237,Altamonte Springs,1436,FL,Florida,233,US,United States,28.66111,-81.36562,Q434355
111250,Alturas,1436,FL,Florida,233,US,United States,27.87169,-81.71508,Q5671195
111255,Alva,1436,FL,Florida,233,US,United States,26.71562,-81.61008,Q448123
111321,Andover,1436,FL,Florida,233,US,United States,25.96843,-80.21283,Q492784
111348,Anna Maria,1436,FL,Florida,233,US,United States,27.53115,-82.73343,Q561969
111382,Apalachicola,1436,FL,Florida,233,US,United States,29.726,-84.9856,Q617392
111388,Apollo Beach,1436,FL,Florida,233,US,United States,27.77308,-82.40759,Q619101
111389,Apopka,1436,FL,Florida,233,US,United States,28.67617,-81.51186,Q619686
111420,Arcadia,1436,FL,Florida,233,US,United States,27.21588,-81.85842,Q631415
111429,Archer,1436,FL,Florida,233,US,United States,29.52997,-82.519,Q632661
111507,Asbury Lake,1436,FL,Florida,233,US,United States,30.04913,-81.82149,Q721464
111559,Astatula,1436,FL,Florida,233,US,United States,28.70972,-81.73285,Q747082
111560,Astor,1436,FL,Florida,233,US,United States,29.16248,-81.52535,Q750113
111595,Atlantic Beach,1436,FL,Florida,233,US,United States,30.33441,-81.3987,Q514250
111601,Atlantis,1436,FL,Florida,233,US,United States,26.5909,-80.10088,Q756652
111636,Auburndale,1436,FL,Florida,233,US,United States,28.0653,-81.78869,Q589279
111678,Aventura,1436,FL,Florida,233,US,United States,25.95648,-80.13921,Q790541
111696,Avon Park,1436,FL,Florida,233,US,United States,27.59587,-81.50619,Q791286
111709,Azalea Park,1436,FL,Florida,233,US,United States,28.54111,-81.30062,Q793493
111715,Babson Park,1436,FL,Florida,233,US,United States,27.83197,-81.5223,Q797783
111726,Bagdad,1436,FL,Florida,233,US,United States,30.5988,-87.03223,Q799865
111741,Baker County,1436,FL,Florida,233,US,United States,30.33107,-82.28459,Q156568
111747,Bal Harbour,1436,FL,Florida,233,US,United States,25.89176,-80.12699,Q804577
111753,Baldwin,1436,FL,Florida,233,US,United States,30.30274,-81.97539,Q804864
111778,Balm,1436,FL,Florida,233,US,United States,27.75947,-82.2612,Q4852326
111872,Bartow,1436,FL,Florida,233,US,United States,27.89641,-81.84314,Q809580
111924,Bay County,1436,FL,Florida,233,US,United States,30.23765,-85.63262,Q488865
111927,Bay Harbor Islands,1436,FL,Florida,233,US,United States,25.88759,-80.13116,Q812078
111928,Bay Hill,1436,FL,Florida,233,US,United States,28.46806,-81.51618,Q812075
111931,Bay Pines,1436,FL,Florida,233,US,United States,27.81419,-82.77816,Q812080
111944,Bayonet Point,1436,FL,Florida,233,US,United States,28.32667,-82.68343,Q240417
111954,Bayshore Gardens,1436,FL,Florida,233,US,United States,27.42532,-82.59038,Q812626
111969,Beacon Square,1436,FL,Florida,233,US,United States,28.20862,-82.75538,Q187716
112035,Bee Ridge,1436,FL,Florida,233,US,United States,27.28394,-82.48065,Q813985
112073,Bellair-Meadowbrook Terrace,1436,FL,Florida,233,US,United States,30.17881,-81.74341,Q2363017
112082,Belle Glade,1436,FL,Florida,233,US,United States,26.68451,-80.66756,Q815854
112083,Belle Glade Camp,1436,FL,Florida,233,US,United States,26.65757,-80.68284,Q815845
112086,Belle Isle,1436,FL,Florida,233,US,United States,28.45834,-81.35924,Q2154059
112094,Belleair,1436,FL,Florida,233,US,United States,27.93585,-82.80621,Q2092758
112095,Belleair Beach,1436,FL,Florida,233,US,United States,27.92308,-82.84316,Q2154942
112096,Belleair Bluffs,1436,FL,Florida,233,US,United States,27.92141,-82.81705,Q2156015
112102,Belleview,1436,FL,Florida,233,US,United States,29.05526,-82.06231,Q815945
112128,Bellview,1436,FL,Florida,233,US,United States,30.46159,-87.31497,Q816065
112303,Beverly Hills,1436,FL,Florida,233,US,United States,28.91692,-82.45815,Q851806
112319,Big Coppitt Key,1436,FL,Florida,233,US,United States,24.59653,-81.66009,Q858725
112329,Big Pine Key,1436,FL,Florida,233,US,United States,24.66987,-81.35397,Q859187
112361,Biscayne Park,1436,FL,Florida,233,US,United States,25.8826,-80.1806,Q866067
112369,Bithlo,1436,FL,Florida,233,US,United States,28.55472,-81.10645,Q2429053
112373,Black Diamond,1436,FL,Florida,233,US,United States,28.91248,-82.48593,Q570406
112445,Bloomingdale,1436,FL,Florida,233,US,United States,27.89364,-82.24037,Q885388
112459,Blountstown,1436,FL,Florida,233,US,United States,30.44379,-85.04744,Q301266
112492,Boca Del Mar,1436,FL,Florida,233,US,United States,26.34508,-80.14671,Q888940
112493,Boca Pointe,1436,FL,Florida,233,US,United States,26.33313,-80.15949,Q2165520
112494,Boca Raton,1436,FL,Florida,233,US,United States,26.35869,-80.0831,Q29422
112511,Bokeelia,1436,FL,Florida,233,US,United States,26.70563,-82.15898,Q2206571
112536,Bonifay,1436,FL,Florida,233,US,United States,30.79186,-85.67965,Q2156646
112538,Bonita Springs,1436,FL,Florida,233,US,United States,26.33981,-81.7787,Q892635
112606,Boulevard Gardens,1436,FL,Florida,233,US,United States,26.12326,-80.17997,Q895074
112627,Bowling Green,1436,FL,Florida,233,US,United States,27.63837,-81.82397,Q2154315
112647,Boyette,1436,FL,Florida,233,US,United States,27.81753,-82.22259,Q2547778
112652,Boynton Beach,1436,FL,Florida,233,US,United States,26.52535,-80.06643,Q896048
112662,Bradenton,1436,FL,Florida,233,US,United States,27.49893,-82.57482,Q582121
112663,Bradenton Beach,1436,FL,Florida,233,US,United States,27.46698,-82.70399,Q2154833
112668,Bradford County,1436,FL,Florida,233,US,United States,29.94996,-82.16878,Q156577
112688,Brandon,1436,FL,Florida,233,US,United States,27.9378,-82.28592,Q898109
112726,Brent,1436,FL,Florida,233,US,United States,30.46881,-87.23608,Q909661
112738,Brevard County,1436,FL,Florida,233,US,United States,28.30031,-80.70121,Q488517
112802,Bristol,1436,FL,Florida,233,US,United States,30.43247,-84.97702,Q568950
112828,Broadview Park,1436,FL,Florida,233,US,United States,26.09953,-80.20866,Q922815
112844,Bronson,1436,FL,Florida,233,US,United States,29.44774,-82.64233,Q2036740
112880,Brookridge,1436,FL,Florida,233,US,United States,28.5511,-82.49204,Q2423539
112890,Brooksville,1436,FL,Florida,233,US,United States,28.55554,-82.38991,Q587435
112904,Broward County,1436,FL,Florida,233,US,United States,26.15186,-80.45589,Q494624
112905,Broward Estates,1436,FL,Florida,233,US,United States,26.12564,-80.19338,Q991019
112928,Brownsville,1436,FL,Florida,233,US,United States,25.82176,-80.24116,Q2084300
112982,Buckhead Ridge,1436,FL,Florida,233,US,United States,27.13033,-80.89367,Q2494960
112984,Buckingham,1436,FL,Florida,233,US,United States,26.67507,-81.73203,Q2378863
113006,Buenaventura Lakes,1436,FL,Florida,233,US,United States,28.33584,-81.35313,Q2586287
113037,Bunche Park,1436,FL,Florida,233,US,United States,25.92065,-80.23699,Q974140
113045,Bunnell,1436,FL,Florida,233,US,United States,29.46609,-81.25784,Q1003699
113092,Burnt Store Marina,1436,FL,Florida,233,US,United States,26.76507,-82.05092,Q2489974
113101,Bushnell,1436,FL,Florida,233,US,United States,28.66499,-82.11286,Q2153058
113113,Butler Beach,1436,FL,Florida,233,US,United States,29.7983,-81.26701,Q2304580
113202,Calhoun County,1436,FL,Florida,233,US,United States,30.40603,-85.19721,Q174913
113222,Callahan,1436,FL,Florida,233,US,United States,30.56218,-81.83066,Q550296
113224,Callaway,1436,FL,Florida,233,US,United States,30.15298,-85.56993,Q994981
113296,Campbell,1436,FL,Florida,233,US,United States,28.2589,-81.45646,Q1973676
113352,Cantonment,1436,FL,Florida,233,US,United States,30.60853,-87.33998,Q753242
113363,Cape Canaveral,1436,FL,Florida,233,US,United States,28.40584,-80.60477,Q966657
113366,Cape Coral,1436,FL,Florida,233,US,United States,26.56285,-81.94953,Q462789
113433,Carol City,1436,FL,Florida,233,US,United States,25.94065,-80.2456,Q1012122
113441,Carrabelle,1436,FL,Florida,233,US,United States,29.85326,-84.66435,Q2157194
113472,Carrollwood,1436,FL,Florida,233,US,United States,28.05002,-82.49287,Q2010308
113473,Carrollwood Village,1436,FL,Florida,233,US,United States,28.06752,-82.52093,Q5046672
113503,Carver Ranches,1436,FL,Florida,233,US,United States,25.98842,-80.19227,Q992550
113535,Casselberry,1436,FL,Florida,233,US,United States,28.67778,-81.32785,Q1823331
113610,Cedar Grove,1436,FL,Florida,233,US,United States,30.17103,-85.6252,Q1052504
113629,Celebration,1436,FL,Florida,233,US,United States,28.32529,-81.53313,Q1001696
113643,Center Hill,1436,FL,Florida,233,US,United States,28.64999,-81.99258,Q2157798
113697,Century,1436,FL,Florida,233,US,United States,30.97324,-87.26386,Q932750
113781,Charlotte County,1436,FL,Florida,233,US,United States,26.89985,-81.95031,Q488499
113785,Charlotte Harbor,1436,FL,Florida,233,US,United States,26.95839,-82.06703,Q628771
113786,Charlotte Park,1436,FL,Florida,233,US,United States,26.91006,-82.05398,Q1067306
113808,Chattahoochee,1436,FL,Florida,233,US,United States,30.70546,-84.84574,Q2154876
113918,Cheval,1436,FL,Florida,233,US,United States,28.14862,-82.51454,Q1851883
113948,Chiefland,1436,FL,Florida,233,US,United States,29.47496,-82.85984,Q2157216
113972,Chipley,1436,FL,Florida,233,US,United States,30.78186,-85.53854,Q2156023
114001,Christmas,1436,FL,Florida,233,US,United States,28.53639,-81.01756,Q29838
114006,Chuluota,1436,FL,Florida,233,US,United States,28.64194,-81.1234,Q2160280
114032,Citra,1436,FL,Florida,233,US,United States,29.41192,-82.10982,Q3678333
114036,Citrus County,1436,FL,Florida,233,US,United States,28.84757,-82.52011,Q488821
114038,Citrus Hills,1436,FL,Florida,233,US,United States,28.88831,-82.4326,Q1093735
114039,Citrus Park,1436,FL,Florida,233,US,United States,28.07835,-82.56982,Q2464107
114041,Citrus Ridge,1436,FL,Florida,233,US,United States,28.33385,-81.64232,Q2375787
114042,Citrus Springs,1436,FL,Florida,233,US,United States,28.99748,-82.47065,Q1093741
114101,Clarcona,1436,FL,Florida,233,US,United States,28.61278,-81.49868,Q5126098
114175,Clay County,1436,FL,Florida,233,US,United States,29.98307,-81.85789,Q488853
114222,Clearwater,1436,FL,Florida,233,US,United States,27.96585,-82.8001,Q244146
114238,Clermont,1436,FL,Florida,233,US,United States,28.54944,-81.77285,Q531446
114241,Cleveland,1436,FL,Florida,233,US,United States,26.96173,-81.98398,Q1100729
114252,Clewiston,1436,FL,Florida,233,US,United States,26.75423,-80.93368,Q986644
114357,Cocoa,1436,FL,Florida,233,US,United States,28.38612,-80.742,Q986168
114358,Cocoa Beach,1436,FL,Florida,233,US,United States,28.32055,-80.60922,Q852653
114359,Cocoa West,1436,FL,Florida,233,US,United States,28.35942,-80.77109,Q1105429
114361,Coconut Creek,1436,FL,Florida,233,US,United States,26.25175,-80.17894,Q988906
114362,Coconut Grove,1436,FL,Florida,233,US,United States,25.7126,-80.25699,Q1018680
114423,Collier County,1436,FL,Florida,233,US,United States,26.09924,-81.38097,Q488531
114478,Columbia County,1436,FL,Florida,233,US,United States,30.22424,-82.62154,Q173867
114515,Combee Settlement,1436,FL,Florida,233,US,United States,28.05835,-81.90536,Q2428972
114565,Connerton,1436,FL,Florida,233,US,United States,28.31441,-82.47539,Q5161783
114582,Conway,1436,FL,Florida,233,US,United States,28.50278,-81.33062,Q2429132
114602,Cooper City,1436,FL,Florida,233,US,United States,26.05731,-80.27172,Q988926
114624,Coral Gables,1436,FL,Florida,233,US,United States,25.72149,-80.26838,Q427559
114626,Coral Springs,1436,FL,Florida,233,US,United States,26.27119,-80.2706,Q505557
114627,Coral Terrace,1436,FL,Florida,233,US,United States,25.74593,-80.3045,Q2464051
114673,Cortez,1436,FL,Florida,233,US,United States,27.46921,-82.68621,Q2346413
114714,Country Club,1436,FL,Florida,233,US,United States,25.94815,-80.317,Q2464084
114724,Country Walk,1436,FL,Florida,233,US,United States,25.63399,-80.43228,Q2464065
114785,Crawfordville,1436,FL,Florida,233,US,United States,30.17604,-84.37518,Q631217
114795,Crescent City,1436,FL,Florida,233,US,United States,29.43025,-81.51063,Q2153840
114807,Crestview,1436,FL,Florida,233,US,United States,30.76213,-86.57051,Q2153124
114838,Crooked Lake Park,1436,FL,Florida,233,US,United States,27.82919,-81.58397,Q2570565
114847,Cross City,1436,FL,Florida,233,US,United States,29.63465,-83.12694,Q1002856
114878,Crystal Lake,1436,FL,Florida,233,US,United States,28.03558,-81.90841,Q2586202
114882,Crystal River,1436,FL,Florida,233,US,United States,28.90248,-82.5926,Q994967
114883,Crystal Springs,1436,FL,Florida,233,US,United States,28.1814,-82.15758,Q2586356
114891,Cudjoe Key,1436,FL,Florida,233,US,United States,24.67153,-81.49842,Q1143140
114946,Cutler,1436,FL,Florida,233,US,United States,25.6151,-80.31061,Q1872769
114948,Cutler Bay,1436,FL,Florida,233,US,United States,25.5783,-80.3377,Q1986600
114949,Cutler Ridge,1436,FL,Florida,233,US,United States,25.58066,-80.34672,Q1986600
114955,Cypress Gardens,1436,FL,Florida,233,US,United States,27.99391,-81.69008,Q1845155
114957,Cypress Lake,1436,FL,Florida,233,US,United States,26.53813,-81.89925,Q1148244
114958,Cypress Quarters,1436,FL,Florida,233,US,United States,27.25199,-80.81395,Q520499
114964,Dade City,1436,FL,Florida,233,US,United States,28.36472,-82.19592,Q2156477
114965,Dade City North,1436,FL,Florida,233,US,United States,28.38334,-82.19389,Q2377404
115021,Dania Beach,1436,FL,Florida,233,US,United States,26.05231,-80.14393,Q986191
115058,Davenport,1436,FL,Florida,233,US,United States,28.1614,-81.60174,Q1889181
115067,Davie,1436,FL,Florida,233,US,United States,26.06287,-80.2331,Q985438
115102,Daytona Beach,1436,FL,Florida,233,US,United States,29.21081,-81.02283,Q490595
115103,Daytona Beach Shores,1436,FL,Florida,233,US,United States,29.17609,-80.98283,Q261285
115108,De Land Southwest,1436,FL,Florida,233,US,United States,29.0077,-81.31129,Q2980057
115110,De Leon Springs,1436,FL,Florida,233,US,United States,29.11989,-81.35286,Q2880140
115124,DeBary,1436,FL,Florida,233,US,United States,28.88305,-81.30868,Q2153615
115184,Deerfield Beach,1436,FL,Florida,233,US,United States,26.31841,-80.09977,Q584849
115126,DeFuniak Springs,1436,FL,Florida,233,US,United States,30.72102,-86.11522,Q986543
115134,DeLand,1436,FL,Florida,233,US,United States,29.02832,-81.30312,Q988934
115221,Delray Beach,1436,FL,Florida,233,US,United States,26.46146,-80.07282,Q824100
115229,Deltona,1436,FL,Florida,233,US,United States,28.90054,-81.26367,Q1898798
115139,DeSoto County,1436,FL,Florida,233,US,United States,27.18632,-81.8093,Q488796
115287,Desoto Lakes,1436,FL,Florida,233,US,United States,27.37143,-82.48982,Q2570514
115289,Destin,1436,FL,Florida,233,US,United States,30.39353,-86.49578,Q2156427
115361,Dixie County,1436,FL,Florida,233,US,United States,29.58124,-83.18703,Q488805
115373,Doctor Phillips,1436,FL,Florida,233,US,United States,28.44945,-81.49229,Q2421878
115408,Doral,1436,FL,Florida,233,US,United States,25.81954,-80.35533,Q1784180
115446,Dover,1436,FL,Florida,233,US,United States,27.99419,-82.21953,Q2464119
115528,Dundee,1436,FL,Florida,233,US,United States,28.02252,-81.61924,Q1965179
115534,Dunedin,1436,FL,Florida,233,US,United States,28.0199,-82.77323,Q990918
115550,Dunnellon,1436,FL,Florida,233,US,United States,29.04914,-82.46093,Q2154101
115580,Duval County,1436,FL,Florida,233,US,United States,30.33544,-81.64801,Q493605
115602,Eagle Lake,1436,FL,Florida,233,US,United States,27.97836,-81.75647,Q1969826
115638,East Bronson,1436,FL,Florida,233,US,United States,29.45928,-82.5904,Q2570523
115700,East Lake,1436,FL,Florida,233,US,United States,28.11085,-82.69482,Q965206
115701,East Lake-Orient Park,1436,FL,Florida,233,US,United States,27.98269,-82.37878,Q2098201
115714,East Milton,1436,FL,Florida,233,US,United States,30.61519,-87.02163,Q8771466
115718,East Naples,1436,FL,Florida,233,US,United States,26.13842,-81.76648,Q3046528
115727,East Palatka,1436,FL,Florida,233,US,United States,29.6583,-81.59841,Q2350905
115731,East Pensacola Heights,1436,FL,Florida,233,US,United States,30.42881,-87.17997,Q3459226
115734,East Perrine,1436,FL,Florida,233,US,United States,25.60872,-80.33894,Q2001259
115793,Eastpoint,1436,FL,Florida,233,US,United States,29.7366,-84.87852,Q524696
115808,Eatonville,1436,FL,Florida,233,US,United States,28.61472,-81.38062,Q1992883
115851,Edgewater,1436,FL,Florida,233,US,United States,28.98888,-80.90228,Q2227289
115857,Edgewood,1436,FL,Florida,233,US,United States,28.48612,-81.37229,Q2153764
115903,Eglin Air Force Base,1436,FL,Florida,233,US,United States,30.45907,-86.55026,Q1298115
115904,Eglin Village,1436,FL,Florida,233,US,United States,30.46298,-86.5394,Q1298115
115906,Egypt Lake-Leto,1436,FL,Florida,233,US,United States,28.01769,-82.50619,Q2464022
115933,El Portal,1436,FL,Florida,233,US,United States,25.85537,-80.1931,Q2188511
115962,Elfers,1436,FL,Florida,233,US,United States,28.21668,-82.72232,Q629774
116019,Ellenton,1436,FL,Florida,233,US,United States,27.52171,-82.5276,Q2094940
116129,Englewood,1436,FL,Florida,233,US,United States,26.96201,-82.3526,Q1004000
116147,Ensley,1436,FL,Florida,233,US,United States,30.51881,-87.27275,Q538738
116180,Escambia County,1436,FL,Florida,233,US,United States,30.6144,-87.34136,Q156643
116207,Estero,1436,FL,Florida,233,US,United States,26.43814,-81.80675,Q2375832
116241,Eustis,1436,FL,Florida,233,US,United States,28.85277,-81.68535,Q988940
116360,Fairview Shores,1436,FL,Florida,233,US,United States,28.59111,-81.39424,Q1823019
116463,Feather Sound,1436,FL,Florida,233,US,United States,27.90079,-82.67349,Q2321660
116469,Fellsmere,1436,FL,Florida,233,US,United States,27.76781,-80.60144,Q2153534
116483,Fern Park,1436,FL,Florida,233,US,United States,28.64916,-81.35118,Q2423750
116485,Fernandina Beach,1436,FL,Florida,233,US,United States,30.66968,-81.46259,Q1975746
116499,Ferry Pass,1436,FL,Florida,233,US,United States,30.5102,-87.21247,Q1408146
116525,Fish Hawk,1436,FL,Florida,233,US,United States,27.85058,-82.21092,Q2101663
116540,Five Points,1436,FL,Florida,233,US,United States,30.20912,-82.63735,Q1421867
116542,Flagami,1436,FL,Florida,233,US,United States,25.76232,-80.31616,Q5456291
116543,Flagler Beach,1436,FL,Florida,233,US,United States,29.47498,-81.127,Q994756
116544,Flagler County,1436,FL,Florida,233,US,United States,29.47115,-81.29299,Q386885
116545,Flagler Estates,1436,FL,Florida,233,US,United States,29.64553,-81.457,Q5456949
116560,Fleming Island,1436,FL,Florida,233,US,United States,30.0933,-81.71898,Q5458590
116574,Floral City,1436,FL,Florida,233,US,United States,28.74999,-82.29676,Q1429333
116593,Florida City,1436,FL,Florida,233,US,United States,25.44789,-80.47922,Q2153459
116594,Florida Ridge,1436,FL,Florida,233,US,United States,27.58031,-80.38672,Q2443731
116646,Forest City,1436,FL,Florida,233,US,United States,28.66678,-81.44334,Q2301375
116722,Fort Lauderdale,1436,FL,Florida,233,US,United States,26.12231,-80.14338,Q165972
116728,Fort Meade,1436,FL,Florida,233,US,United States,27.75225,-81.80175,Q2153424
116734,Fort Myers,1436,FL,Florida,233,US,United States,26.62168,-81.84059,Q506451
116735,Fort Myers Beach,1436,FL,Florida,233,US,United States,26.45271,-81.95011,Q993774
116736,Fort Myers Shores,1436,FL,Florida,233,US,United States,26.70924,-81.74592,Q2443674
116739,Fort Pierce,1436,FL,Florida,233,US,United States,27.44671,-80.32561,Q584340
116740,Fort Pierce North,1436,FL,Florida,233,US,United States,27.47364,-80.3593,Q2422037
116741,Fort Pierce South,1436,FL,Florida,233,US,United States,27.40962,-80.35483,Q2423782
116759,Fort Walton Beach,1436,FL,Florida,233,US,United States,30.42059,-86.61707,Q984368
116785,Fountainebleau,1436,FL,Florida,233,US,United States,25.77288,-80.34783,Q514636
116791,Four Corners,1436,FL,Florida,233,US,United States,28.33287,-81.64738,Q961038
116845,Franklin County,1436,FL,Florida,233,US,United States,29.81168,-84.80046,Q488813
116910,Freeport,1436,FL,Florida,233,US,United States,30.49825,-86.13605,Q1907019
116965,Frostproof,1436,FL,Florida,233,US,United States,27.74586,-81.53063,Q2154354
116966,Fruit Cove,1436,FL,Florida,233,US,United States,30.11107,-81.64176,Q949709
116973,Fruitland Park,1436,FL,Florida,233,US,United States,28.86138,-81.90647,Q604797
116977,Fruitville,1436,FL,Florida,233,US,United States,27.32977,-82.4576,Q2293233
116980,Fuller Heights,1436,FL,Florida,233,US,United States,27.90919,-81.99814,Q5399994
117002,Fussels Corner,1436,FL,Florida,233,US,United States,28.05419,-81.86064,Q2428830
117006,Gadsden County,1436,FL,Florida,233,US,United States,30.57947,-84.6136,Q501848
117014,Gainesville,1436,FL,Florida,233,US,United States,29.65163,-82.32483,Q487999
117049,Gandy,1436,FL,Florida,233,US,United States,27.8685,-82.61612,Q2665072
117123,Gateway,1436,FL,Florida,233,US,United States,26.57757,-81.75036,Q2279712
117140,Geneva,1436,FL,Florida,233,US,United States,28.73972,-81.11506,Q2980048
117191,Gibsonia,1436,FL,Florida,233,US,United States,28.11474,-81.97369,Q2039303
117193,Gibsonton,1436,FL,Florida,233,US,United States,27.85364,-82.38259,Q615845
117197,Gifford,1436,FL,Florida,233,US,United States,27.67531,-80.40922,Q2443721
117208,Gilchrist County,1436,FL,Florida,233,US,United States,29.72582,-82.80037,Q111720
117233,Glades County,1436,FL,Florida,233,US,United States,26.95648,-81.18898,Q488468
117234,Gladeview,1436,FL,Florida,233,US,United States,25.83926,-80.2356,Q2464131
117277,Glencoe,1436,FL,Florida,233,US,United States,29.02582,-80.972,Q2980040
117308,Glenvar Heights,1436,FL,Florida,233,US,United States,25.7076,-80.32561,Q2443686
117348,Golden Gate,1436,FL,Florida,233,US,United States,26.18787,-81.69509,Q578972
117349,Golden Glades,1436,FL,Florida,233,US,United States,25.91176,-80.20033,Q1817096
117361,Goldenrod,1436,FL,Florida,233,US,United States,28.61028,-81.28868,Q2428864
117374,Gonzalez,1436,FL,Florida,233,US,United States,30.58158,-87.29136,Q1537327
117414,Gotha,1436,FL,Florida,233,US,United States,28.52778,-81.52313,Q2580653
117416,Goulding,1436,FL,Florida,233,US,United States,30.44298,-87.22247,Q1540172
117417,Goulds,1436,FL,Florida,233,US,United States,25.56261,-80.38228,Q2443480
117425,Graceville,1436,FL,Florida,233,US,United States,30.95685,-85.5166,Q2154857
117524,Grant-Valkaria,1436,FL,Florida,233,US,United States,27.9398,-80.57104,Q2154617
117581,Greater Northdale,1436,FL,Florida,233,US,United States,28.10545,-82.52594,Q2510570
117594,Green Cove Springs,1436,FL,Florida,233,US,United States,29.99191,-81.67815,Q988944
117614,Greenacres City,1436,FL,Florida,233,US,United States,26.62368,-80.12532,Q990948
117618,Greenbriar,1436,FL,Florida,233,US,United States,28.01128,-82.75272,Q5603721
117724,Gretna,1436,FL,Florida,233,US,United States,30.61714,-84.65991,Q2140170
117755,Grove City,1436,FL,Florida,233,US,United States,26.91423,-82.32704,Q1547798
117758,Groveland,1436,FL,Florida,233,US,United States,28.55805,-81.85119,Q2153697
117790,Gulf Breeze,1436,FL,Florida,233,US,United States,30.35714,-87.16386,Q731333
117791,Gulf County,1436,FL,Florida,233,US,United States,29.90862,-85.26101,Q488461
117792,Gulf Gate Estates,1436,FL,Florida,233,US,United States,27.25173,-82.51471,Q2429043
117796,Gulfport,1436,FL,Florida,233,US,United States,27.74836,-82.70343,Q2153200
117845,Haines City,1436,FL,Florida,233,US,United States,28.1145,-81.62009,Q2153814
117869,Hallandale Beach,1436,FL,Florida,233,US,United States,25.9812,-80.14838,Q986548
117896,Hamilton County,1436,FL,Florida,233,US,United States,30.49643,-82.94796,Q257311
117989,Harbor Bluffs,1436,FL,Florida,233,US,United States,27.90947,-82.8276,Q590655
117992,Harbour Heights,1436,FL,Florida,233,US,United States,26.99089,-82.00231,Q1584944
117993,Hardee County,1436,FL,Florida,233,US,United States,27.4927,-81.80993,Q488792
118021,Harlem,1436,FL,Florida,233,US,United States,26.73757,-80.9509,Q1998075
118024,Harlem Heights,1436,FL,Florida,233,US,United States,26.51619,-81.92787,Q2034525
118145,Havana,1436,FL,Florida,233,US,United States,30.62381,-84.41463,Q1967008
118149,Haverhill,1436,FL,Florida,233,US,United States,26.69118,-80.12004,Q1950976
118172,Hawthorne,1436,FL,Florida,233,US,United States,29.59191,-82.08732,Q1003873
118224,Heathrow,1436,FL,Florida,233,US,United States,28.76333,-81.37225,Q2423734
118289,Hendry County,1436,FL,Florida,233,US,United States,26.55349,-81.1659,Q488488
118321,Heritage Pines,1436,FL,Florida,233,US,United States,28.42522,-82.62111,Q5738931
118332,Hernando,1436,FL,Florida,233,US,United States,28.89998,-82.37454,Q1613686
118334,Hernando Beach,1436,FL,Florida,233,US,United States,28.46944,-82.65927,Q2570666
118335,Hernando County,1436,FL,Florida,233,US,United States,28.55617,-82.46849,Q488572
118354,Hialeah,1436,FL,Florida,233,US,United States,25.8576,-80.27811,Q49276
118355,Hialeah Gardens,1436,FL,Florida,233,US,United States,25.8651,-80.3245,Q595281
118387,High Point,1436,FL,Florida,233,US,United States,28.54687,-82.52468,Q2570641
118389,High Springs,1436,FL,Florida,233,US,United States,29.82691,-82.59678,Q994778
118402,Highland Beach,1436,FL,Florida,233,US,United States,26.39952,-80.0656,Q1992688
118403,Highland City,1436,FL,Florida,233,US,United States,27.9653,-81.87786,Q2429031
118419,Highlands County,1436,FL,Florida,233,US,United States,27.3434,-81.34097,Q488885
118427,Hiland Park,1436,FL,Florida,233,US,United States,30.20103,-85.62687,Q1618106
118432,Hill 'n Dale,1436,FL,Florida,233,US,United States,28.51972,-82.29926,Q2570687
118444,Hilliard,1436,FL,Florida,233,US,United States,30.69107,-81.91733,Q2092774
118453,Hillsboro Beach,1436,FL,Florida,233,US,United States,26.29397,-80.07893,Q1014022
118457,Hillsborough County,1436,FL,Florida,233,US,United States,27.90623,-82.34692,Q488874
118501,Hobe Sound,1436,FL,Florida,233,US,United States,27.0595,-80.13643,Q2461671
118525,Holden Heights,1436,FL,Florida,233,US,United States,28.49667,-81.38785,Q2570546
118529,Holiday,1436,FL,Florida,233,US,United States,28.18779,-82.73955,Q2126669
118542,Holley,1436,FL,Florida,233,US,United States,30.44686,-86.90691,Q867985
118556,Holly Hill,1436,FL,Florida,233,US,United States,29.24359,-81.03756,Q2153091
118565,Hollywood,1436,FL,Florida,233,US,United States,26.0112,-80.14949,Q234453
118570,Holmes Beach,1436,FL,Florida,233,US,United States,27.49532,-82.71093,Q2004474
118571,Holmes County,1436,FL,Florida,233,US,United States,30.86789,-85.8141,Q488879
118601,Homestead,1436,FL,Florida,233,US,United States,25.46872,-80.47756,Q280557
118610,Homosassa,1436,FL,Florida,233,US,United States,28.78137,-82.6151,Q1626250
118611,Homosassa Springs,1436,FL,Florida,233,US,United States,28.80359,-82.57593,Q1626252
118665,Horizon West,1436,FL,Florida,233,US,United States,28.43383,-81.6227,Q5903504
118724,Howey-in-the-Hills,1436,FL,Florida,233,US,United States,28.71694,-81.77341,Q2092664
118735,Hudson,1436,FL,Florida,233,US,United States,28.36445,-82.69343,Q768903
118790,Hunters Creek,1436,FL,Florida,233,US,United States,28.36056,-81.42229,Q1821166
118839,Hutchinson Island South,1436,FL,Florida,233,US,United States,27.29949,-80.22045,Q2428920
118856,Hypoluxo,1436,FL,Florida,233,US,United States,26.56646,-80.05337,Q1842897
118880,Immokalee,1436,FL,Florida,233,US,United States,26.41869,-81.4173,Q1660142
118901,Indialantic,1436,FL,Florida,233,US,United States,28.08946,-80.56561,Q1013985
118902,Indian Harbour Beach,1436,FL,Florida,233,US,United States,28.1489,-80.58839,Q994766
118913,Indian River County,1436,FL,Florida,233,US,United States,27.69639,-80.57409,Q488528
118914,Indian River Estates,1436,FL,Florida,233,US,United States,27.36449,-80.30977,Q2428878
118915,Indian River Shores,1436,FL,Florida,233,US,United States,27.7167,-80.38422,Q2092746
118916,Indian Rocks Beach,1436,FL,Florida,233,US,United States,27.8753,-82.85122,Q992514
118917,Indian Shores,1436,FL,Florida,233,US,United States,27.8628,-82.84844,Q2038670
118928,Indiantown,1436,FL,Florida,233,US,United States,27.02728,-80.48561,Q2375771
118939,Inglis,1436,FL,Florida,233,US,United States,29.03025,-82.66872,Q2092719
118950,Interlachen,1436,FL,Florida,233,US,United States,29.62421,-81.89256,Q2092586
118955,Inverness,1436,FL,Florida,233,US,United States,28.83582,-82.33037,Q743247
118959,Inverness Highlands North,1436,FL,Florida,233,US,United States,28.8642,-82.37688,Q573657
118960,Inverness Highlands South,1436,FL,Florida,233,US,United States,28.80055,-82.3371,Q584851
118961,Inwood,1436,FL,Florida,233,US,United States,28.03697,-81.76508,Q2185315
118968,Iona,1436,FL,Florida,233,US,United States,26.52036,-81.96398,Q1672045
119022,Islamorada,1436,FL,Florida,233,US,United States,24.9243,-80.62784,Q938815
119028,Island Walk,1436,FL,Florida,233,US,United States,26.25099,-81.71101,Q3448891
119031,Isle of Normandy,1436,FL,Florida,233,US,United States,25.85287,-80.13505,Q2212257
119050,Ives Estates,1436,FL,Florida,233,US,United States,25.96231,-80.17671,Q2443533
119077,Jackson County,1436,FL,Florida,233,US,United States,30.79539,-85.21546,Q488537
119101,Jacksonville,1436,FL,Florida,233,US,United States,30.33218,-81.65565,Q16568
119106,Jacksonville Beach,1436,FL,Florida,233,US,United States,30.29469,-81.39314,Q988928
119129,Jan-Phyl Village,1436,FL,Florida,233,US,United States,28.01474,-81.77175,Q2423815
119136,Jasmine Estates,1436,FL,Florida,233,US,United States,28.29306,-82.6901,Q370271
119140,Jasper,1436,FL,Florida,233,US,United States,30.51827,-82.94819,Q1909831
119177,Jefferson County,1436,FL,Florida,233,US,United States,30.42346,-83.90047,Q488859
119222,Jensen Beach,1436,FL,Florida,233,US,United States,27.25449,-80.22977,Q2375999
119336,June Park,1436,FL,Florida,233,US,United States,28.07224,-80.68006,Q1434576
119341,Juno Beach,1436,FL,Florida,233,US,United States,26.87978,-80.05337,Q668308
119342,Jupiter,1436,FL,Florida,233,US,United States,26.93422,-80.09421,Q986329
119393,Kathleen,1436,FL,Florida,233,US,United States,28.12085,-82.02314,Q602145
119444,Kendale Lakes,1436,FL,Florida,233,US,United States,25.70816,-80.407,Q2443471
119445,Kendall,1436,FL,Florida,233,US,United States,25.67927,-80.31727,Q2361035
119448,Kendall Green,1436,FL,Florida,233,US,United States,26.25397,-80.12393,Q990031
119450,Kendall West,1436,FL,Florida,233,US,United States,25.7065,-80.4388,Q2443542
119472,Kenneth City,1436,FL,Florida,233,US,United States,27.81558,-82.7201,Q2092522
119485,Kensington Park,1436,FL,Florida,233,US,United States,27.35949,-82.49649,Q2586264
119537,Key Biscayne,1436,FL,Florida,233,US,United States,25.69371,-80.16282,Q1650594
119539,Key Largo,1436,FL,Florida,233,US,United States,25.08652,-80.44728,Q136618
119540,Key Vista,1436,FL,Florida,233,US,United States,28.1947,-82.77038,Q136618
119541,Key West,1436,FL,Florida,233,US,United States,24.55524,-81.78163,Q485186
119546,Keystone,1436,FL,Florida,233,US,United States,28.15585,-82.62121,Q2463935
119548,Keystone Heights,1436,FL,Florida,233,US,United States,29.78608,-82.03149,Q602301
119607,Kings Point,1436,FL,Florida,233,US,United States,26.44535,-80.13977,Q2620860
119658,Kissimmee,1436,FL,Florida,233,US,United States,28.30468,-81.41667,Q583894
119798,LaBelle,1436,FL,Florida,233,US,United States,26.76173,-81.43841,Q721447
119820,Lacoochee,1436,FL,Florida,233,US,United States,28.46583,-82.17203,Q2624828
119829,Lady Lake,1436,FL,Florida,233,US,United States,28.91749,-81.92286,Q972057
119839,Lafayette County,1436,FL,Florida,233,US,United States,29.98552,-83.18107,Q488810
119851,Laguna Beach,1436,FL,Florida,233,US,United States,30.23965,-85.9241,Q1734959
119862,Lake Alfred,1436,FL,Florida,233,US,United States,28.09196,-81.72341,Q2153988
119870,Lake Belvedere Estates,1436,FL,Florida,233,US,United States,26.68923,-80.13338,Q2141723
119873,Lake Butler,1436,FL,Florida,233,US,United States,30.02274,-82.33956,Q2381270
119879,Lake City,1436,FL,Florida,233,US,United States,30.18968,-82.63929,Q985179
119887,Lake Clarke Shores,1436,FL,Florida,233,US,United States,26.64534,-80.07588,Q2036727
119889,Lake County,1436,FL,Florida,233,US,United States,28.76147,-81.7113,Q501029
119909,Lake Forest,1436,FL,Florida,233,US,United States,25.97759,-80.1831,Q1012133
119917,Lake Hamilton,1436,FL,Florida,233,US,United States,28.04446,-81.62785,Q2092549
119919,Lake Helen,1436,FL,Florida,233,US,United States,28.98082,-81.23339,Q1883065
119930,Lake Lorraine,1436,FL,Florida,233,US,United States,30.44159,-86.56523,Q2429065
119933,Lake Lucerne,1436,FL,Florida,233,US,United States,25.96509,-80.24144,Q1018255
119936,Lake Mack-Forest Hills,1436,FL,Florida,233,US,United States,29.00074,-81.42397,Q1903265
119937,Lake Magdalene,1436,FL,Florida,233,US,United States,28.07418,-82.47176,Q2463958
119939,Lake Mary,1436,FL,Florida,233,US,United States,28.75888,-81.31784,Q989484
119957,Lake Panasoffkee,1436,FL,Florida,233,US,United States,28.75582,-82.09481,Q2570574
119959,Lake Park,1436,FL,Florida,233,US,United States,26.80034,-80.06643,Q629401
119962,Lake Placid,1436,FL,Florida,233,US,United States,27.35197,-81.32631,Q1986499
119974,Lake Sarasota,1436,FL,Florida,233,US,United States,27.29255,-82.4376,Q1983119
119991,Lake Wales,1436,FL,Florida,233,US,United States,27.90141,-81.58591,Q1647959
119997,Lake Worth,1436,FL,Florida,233,US,United States,26.61708,-80.07231,Q984358
119999,Lake Worth Corridor,1436,FL,Florida,233,US,United States,26.61649,-80.10102,Q2329916
120012,Lakeland,1436,FL,Florida,233,US,United States,28.03947,-81.9498,Q639452
120017,Lakeland Highlands,1436,FL,Florida,233,US,United States,27.95975,-81.95008,Q2421989
120025,Lakes by the Bay,1436,FL,Florida,233,US,United States,25.57233,-80.32533,Q2332804
120029,Lakeside,1436,FL,Florida,233,US,United States,30.12996,-81.76815,Q2464071
120054,Lakewood Park,1436,FL,Florida,233,US,United States,27.54309,-80.40227,Q2004602
120095,Land O' Lakes,1436,FL,Florida,233,US,United States,28.2189,-82.45759,Q2375799
120129,Lantana,1436,FL,Florida,233,US,United States,26.58674,-80.05199,Q1992911
120143,Largo,1436,FL,Florida,233,US,United States,27.90979,-82.78842,Q932577
120182,Lauderdale Lakes,1436,FL,Florida,233,US,United States,26.16647,-80.20838,Q994944
120183,Lauderdale-by-the-Sea,1436,FL,Florida,233,US,United States,26.19203,-80.09643,Q994999
120184,Lauderhill,1436,FL,Florida,233,US,United States,26.14036,-80.21338,Q1001267
120188,Laurel,1436,FL,Florida,233,US,United States,27.14378,-82.46158,Q425638
120278,Lealman,1436,FL,Florida,233,US,United States,27.82114,-82.67927,Q6509379
120299,Lecanto,1436,FL,Florida,233,US,United States,28.85165,-82.4876,Q1347092
120308,Lee County,1436,FL,Florida,233,US,United States,26.62536,-81.84952,Q494616
120324,Leesburg,1436,FL,Florida,233,US,United States,28.81082,-81.87786,Q625833
120334,Lehigh Acres,1436,FL,Florida,233,US,United States,26.62535,-81.6248,Q960225
120340,Leisure City,1436,FL,Florida,233,US,United States,25.49539,-80.42922,Q2443522
120353,Lely,1436,FL,Florida,233,US,United States,26.10065,-81.72842,Q1816734
120354,Lely Resort,1436,FL,Florida,233,US,United States,26.08093,-81.69786,Q1816741
120384,Leon County,1436,FL,Florida,233,US,United States,30.45804,-84.27788,Q488576
120409,Levy County,1436,FL,Florida,233,US,United States,29.28221,-82.78861,Q501022
120470,Liberty County,1436,FL,Florida,233,US,United States,30.24136,-84.88291,Q255943
120480,Lighthouse Point,1436,FL,Florida,233,US,United States,26.27564,-80.08727,Q994800
120496,Limestone Creek,1436,FL,Florida,233,US,United States,26.94284,-80.14115,Q2980073
120638,Live Oak,1436,FL,Florida,233,US,United States,30.29495,-82.98402,Q2155397
120672,Lochmoor Waterway Estates,1436,FL,Florida,233,US,United States,26.64424,-81.90981,Q2377936
120676,Lockhart,1436,FL,Florida,233,US,United States,28.61944,-81.44257,Q2429021
120751,Longboat Key,1436,FL,Florida,233,US,United States,27.41254,-82.65899,Q993809
120760,Longwood,1436,FL,Florida,233,US,United States,28.70305,-81.3384,Q2153666
120803,Loughman,1436,FL,Florida,233,US,United States,28.24196,-81.56674,Q1809413
120841,Lower Grand Lagoon,1436,FL,Florida,233,US,United States,30.14409,-85.75076,Q2513076
120851,Loxahatchee Groves,1436,FL,Florida,233,US,United States,26.68368,-80.27977,Q2155294
120898,Lutz,1436,FL,Florida,233,US,United States,28.15112,-82.46148,Q1963340
120929,Lynn Haven,1436,FL,Florida,233,US,United States,30.24548,-85.64826,Q994786
120953,Macclenny,1436,FL,Florida,233,US,United States,30.28218,-82.12206,Q985363
120978,Madeira Beach,1436,FL,Florida,233,US,United States,27.79808,-82.79732,Q2152319
120985,Madison,1436,FL,Florida,233,US,United States,30.46938,-83.41293,Q2152803
121004,Madison County,1436,FL,Florida,233,US,United States,30.44414,-83.47012,Q494463
121051,Maitland,1436,FL,Florida,233,US,United States,28.62778,-81.36312,Q2152022
121056,Malabar,1436,FL,Florida,233,US,United States,28.00363,-80.56561,Q1022772
121065,Malone,1436,FL,Florida,233,US,United States,30.95769,-85.16215,Q2093590
121080,Manasota Key,1436,FL,Florida,233,US,United States,26.92534,-82.35204,Q1655410
121084,Manatee County,1436,FL,Florida,233,US,United States,27.47752,-82.35754,Q262708
121085,Manatee Road,1436,FL,Florida,233,US,United States,29.51302,-82.91429,Q1865722
121108,Mango,1436,FL,Florida,233,US,United States,27.97974,-82.30648,Q1992999
121109,Mangonia Park,1436,FL,Florida,233,US,United States,26.76034,-80.07365,Q2028449
121184,Marathon,1436,FL,Florida,233,US,United States,24.71375,-81.09035,Q988947
121197,Marco,1436,FL,Florida,233,US,United States,25.9726,-81.72898,Q3710243
121198,Marco Island,1436,FL,Florida,233,US,United States,25.94121,-81.71842,Q985306
121206,Margate,1436,FL,Florida,233,US,United States,26.24453,-80.20644,Q989468
121209,Marianna,1436,FL,Florida,233,US,United States,30.77436,-85.22687,Q1924806
121249,Marion County,1436,FL,Florida,233,US,United States,29.2102,-82.05668,Q501014
121337,Martin County,1436,FL,Florida,233,US,United States,27.08157,-80.39851,Q648752
121354,Mary Esther,1436,FL,Florida,233,US,United States,30.41015,-86.66509,Q1003695
121366,Masaryktown,1436,FL,Florida,233,US,United States,28.44167,-82.45704,Q356789
121368,Mascotte,1436,FL,Florida,233,US,United States,28.57833,-81.88675,Q2153730
121442,Mayo,1436,FL,Florida,233,US,United States,30.053,-83.17486,Q2036781
121505,McGregor,1436,FL,Florida,233,US,United States,26.56091,-81.91453,Q522347
121562,Meadow Oaks,1436,FL,Florida,233,US,United States,28.34619,-82.60284,Q545384
121564,Meadow Woods,1436,FL,Florida,233,US,United States,28.38556,-81.36646,Q2106597
121609,Medulla,1436,FL,Florida,233,US,United States,27.9678,-81.97342,Q2287009
121620,Melbourne,1436,FL,Florida,233,US,United States,28.08363,-80.60811,Q949779
121622,Melbourne Beach,1436,FL,Florida,233,US,United States,28.06835,-80.56033,Q1013994
121631,Melrose Park,1436,FL,Florida,233,US,United States,26.11342,-80.19338,Q990034
121638,Memphis,1436,FL,Florida,233,US,United States,27.53587,-82.56121,Q2081132
121714,Merritt Island,1436,FL,Florida,233,US,United States,28.53917,-80.672,Q991010
121744,Mexico Beach,1436,FL,Florida,233,US,United States,29.94809,-85.41995,Q999465
121746,Miami,1436,FL,Florida,233,US,United States,25.77427,-80.19366,Q8652
121750,Miami Beach,1436,FL,Florida,233,US,United States,25.79065,-80.13005,Q201516
121753,Miami Gardens,1436,FL,Florida,233,US,United States,25.94204,-80.2456,Q721455
121754,Miami Lakes,1436,FL,Florida,233,US,United States,25.90871,-80.30866,Q995006
121755,Miami Shores,1436,FL,Florida,233,US,United States,25.86315,-80.19283,Q2357116
121756,Miami Springs,1436,FL,Florida,233,US,United States,25.82232,-80.2895,Q775769
121757,Miami-Dade County,1436,FL,Florida,233,US,United States,25.60897,-80.49867,Q468557
121758,Micco,1436,FL,Florida,233,US,United States,27.88058,-80.50033,Q1760981
121768,Middleburg,1436,FL,Florida,233,US,United States,30.06885,-81.86038,Q2271504
121820,Midway,1436,FL,Florida,233,US,United States,30.40648,-87.00553,Q6843231
121912,Milton,1436,FL,Florida,233,US,United States,30.63241,-87.03969,Q962936
121926,Mims,1436,FL,Florida,233,US,United States,28.66527,-80.84478,Q1371625
121954,Minneola,1436,FL,Florida,233,US,United States,28.57444,-81.74619,Q2086666
121973,Miramar,1436,FL,Florida,233,US,United States,25.98731,-80.23227,Q745168
121974,Miramar Beach,1436,FL,Florida,233,US,United States,30.37437,-86.35856,Q2429075
122029,Molino,1436,FL,Florida,233,US,United States,30.72408,-87.31414,Q1943497
122069,Monroe County,1436,FL,Florida,233,US,United States,25.55731,-80.91705,Q263742
122159,Monticello,1436,FL,Florida,233,US,United States,30.54515,-83.8713,Q2157263
122188,Montverde,1436,FL,Florida,233,US,United States,28.60028,-81.67396,Q2092516
122204,Moore Haven,1436,FL,Florida,233,US,United States,26.83312,-81.09312,Q580316
122341,Mount Dora,1436,FL,Florida,233,US,United States,28.80249,-81.64452,Q990910
122383,Mount Plymouth,1436,FL,Florida,233,US,United States,28.80805,-81.53313,Q2570456
122453,Mulberry,1436,FL,Florida,233,US,United States,27.8953,-81.97342,Q2153870
122522,Myrtle Grove,1436,FL,Florida,233,US,United States,30.42103,-87.30747,Q1898719
122552,Naples,1436,FL,Florida,233,US,United States,26.14234,-81.79596,Q257830
122556,Naples Manor,1436,FL,Florida,233,US,United States,26.0887,-81.7262,Q1898761
122557,Naples Park,1436,FL,Florida,233,US,United States,26.26175,-81.80925,Q1898776
122562,Naranja,1436,FL,Florida,233,US,United States,25.51816,-80.42283,Q2443490
122582,Nassau County,1436,FL,Florida,233,US,United States,30.61058,-81.77142,Q488818
122584,Nassau Village-Ratliff,1436,FL,Florida,233,US,United States,30.51111,-81.80925,Q2421958
122600,Navarre,1436,FL,Florida,233,US,United States,30.40159,-86.86357,Q3470764
122637,Neptune Beach,1436,FL,Florida,233,US,United States,30.31191,-81.39647,Q989461
122764,New Port Richey,1436,FL,Florida,233,US,United States,28.24418,-82.71927,Q986178
122765,New Port Richey East,1436,FL,Florida,233,US,United States,28.26027,-82.69261,Q3293381
122779,New Smyrna Beach,1436,FL,Florida,233,US,United States,29.02582,-80.927,Q375375
122810,Newberry,1436,FL,Florida,233,US,United States,29.64635,-82.6065,Q1003844
122886,Niceville,1436,FL,Florida,233,US,United States,30.51686,-86.48217,Q2100064
122922,Nocatee,1436,FL,Florida,233,US,United States,27.16033,-81.88231,Q1645069
122929,Nokomis,1436,FL,Florida,233,US,United States,27.11922,-82.44426,Q2570535
122946,Norland,1436,FL,Florida,233,US,United States,25.94898,-80.21227,Q154515
122963,North Andrews Gardens,1436,FL,Florida,233,US,United States,26.19147,-80.14421,Q924186
122976,North Bay Village,1436,FL,Florida,233,US,United States,25.84621,-80.15394,Q2153328
122997,North Brooksville,1436,FL,Florida,233,US,United States,28.57305,-82.40815,Q2571658
123013,North DeLand,1436,FL,Florida,233,US,United States,29.04943,-81.29812,Q2255030
123029,North Fort Myers,1436,FL,Florida,233,US,United States,26.66729,-81.88009,Q282266
123047,North Key Largo,1436,FL,Florida,233,US,United States,25.26734,-80.32339,Q2178571
123053,North Lauderdale,1436,FL,Florida,233,US,United States,26.2173,-80.22588,Q606186
123066,North Miami,1436,FL,Florida,233,US,United States,25.89009,-80.18671,Q980428
123067,North Miami Beach,1436,FL,Florida,233,US,United States,25.93315,-80.16255,Q988909
123075,North Palm Beach,1436,FL,Florida,233,US,United States,26.81756,-80.08199,Q2378447
123085,North Port,1436,FL,Florida,233,US,United States,27.04422,-82.23593,Q2155370
123092,North Redington Beach,1436,FL,Florida,233,US,United States,27.81614,-82.82066,Q2092623
123095,North River Shores,1436,FL,Florida,233,US,United States,27.21755,-80.26977,Q2586408
123100,North Sarasota,1436,FL,Florida,233,US,United States,27.37393,-82.51843,Q2428983
123127,North Weeki Wachee,1436,FL,Florida,233,US,United States,28.55014,-82.55888,Q2136710
123145,Northdale,1436,FL,Florida,233,US,United States,28.0939,-82.50561,Q7057783
123243,Oak Hill,1436,FL,Florida,233,US,United States,28.86443,-80.8545,Q767505
123260,Oak Ridge,1436,FL,Florida,233,US,United States,28.47112,-81.42452,Q968312
123282,Oakland,1436,FL,Florida,233,US,United States,28.555,-81.63313,Q2036759
123296,Oakland Park,1436,FL,Florida,233,US,United States,26.17231,-80.13199,Q985183
123297,Oakleaf Plantation,1436,FL,Florida,233,US,United States,30.17083,-81.83549,Q985183
123320,Ocala,1436,FL,Florida,233,US,United States,29.1872,-82.14009,Q918195
123325,Ocean City,1436,FL,Florida,233,US,United States,30.44103,-86.61356,Q2102898
123335,Ocean Ridge,1436,FL,Florida,233,US,United States,26.52702,-80.04837,Q2036889
123347,Ocoee,1436,FL,Florida,233,US,United States,28.56917,-81.54396,Q2155347
123358,Odessa,1436,FL,Florida,233,US,United States,28.1939,-82.59176,Q2149988
123391,Ojus,1436,FL,Florida,233,US,United States,25.94843,-80.1506,Q2103743
123392,Okaloosa County,1436,FL,Florida,233,US,United States,30.66503,-86.59218,Q494476
123398,Okeechobee,1436,FL,Florida,233,US,United States,27.24393,-80.82978,Q587146
123399,Okeechobee County,1436,FL,Florida,233,US,United States,27.38629,-80.88858,Q501123
123434,Oldsmar,1436,FL,Florida,233,US,United States,28.03418,-82.6651,Q971628
123437,Olga,1436,FL,Florida,233,US,United States,26.71896,-81.7123,Q2571676
123461,Olympia Heights,1436,FL,Florida,233,US,United States,25.72677,-80.35533,Q735986
123494,Opa-locka,1436,FL,Florida,233,US,United States,25.90232,-80.25033,Q785565
123512,Orange City,1436,FL,Florida,233,US,United States,28.94888,-81.29867,Q986196
123514,Orange County,1436,FL,Florida,233,US,United States,28.51442,-81.32348,Q488543
123525,Orange Park,1436,FL,Florida,233,US,United States,30.16607,-81.70648,Q367316
123529,Orangetree,1436,FL,Florida,233,US,United States,26.29286,-81.58842,Q2580628
123555,Oriole Beach,1436,FL,Florida,233,US,United States,30.37381,-87.09136,Q7102744
123562,Orlando,1436,FL,Florida,233,US,United States,28.53834,-81.37924,Q49233
123568,Orlovista,1436,FL,Florida,233,US,United States,28.53834,-81.46035,Q2429119
123569,Ormond Beach,1436,FL,Florida,233,US,United States,29.28581,-81.05589,Q985167
123570,Ormond-by-the-Sea,1436,FL,Florida,233,US,United States,29.34914,-81.06645,Q2307186
123603,Osceola County,1436,FL,Florida,233,US,United States,28.06266,-81.14948,Q501067
123613,Osprey,1436,FL,Florida,233,US,United States,27.19616,-82.49037,Q2322698
123656,Oviedo,1436,FL,Florida,233,US,United States,28.67,-81.20812,Q1813449
123704,Pace,1436,FL,Florida,233,US,United States,30.59936,-87.16108,Q2042845
123723,Pahokee,1436,FL,Florida,233,US,United States,26.82006,-80.66534,Q2152074
123732,Palatka,1436,FL,Florida,233,US,United States,29.64858,-81.63758,Q955907
123740,Palm Aire,1436,FL,Florida,233,US,United States,26.20619,-80.19171,Q2262124
123741,Palm Bay,1436,FL,Florida,233,US,United States,28.03446,-80.58866,Q816809
123742,Palm Beach,1436,FL,Florida,233,US,United States,26.70562,-80.03643,Q695411
123743,Palm Beach County,1436,FL,Florida,233,US,United States,26.64757,-80.43651,Q484294
123744,Palm Beach Gardens,1436,FL,Florida,233,US,United States,26.82339,-80.13865,Q994159
123745,Palm Beach Shores,1436,FL,Florida,233,US,United States,26.77812,-80.0356,Q385146
123746,Palm City,1436,FL,Florida,233,US,United States,27.16783,-80.26616,Q2443698
123747,Palm Coast,1436,FL,Florida,233,US,United States,29.58497,-81.20784,Q610463
123749,Palm Harbor,1436,FL,Florida,233,US,United States,28.07807,-82.76371,Q1964822
123750,Palm River-Clair Mel,1436,FL,Florida,233,US,United States,27.92386,-82.37939,Q256119
123751,Palm Springs,1436,FL,Florida,233,US,United States,26.6359,-80.09615,Q986304
123753,Palm Springs North,1436,FL,Florida,233,US,United States,25.9351,-80.33383,Q2393514
123754,Palm Valley,1436,FL,Florida,233,US,United States,30.17746,-81.38758,Q2258177
123764,Palmetto,1436,FL,Florida,233,US,United States,27.52143,-82.57232,Q2155798
123766,Palmetto Bay,1436,FL,Florida,233,US,United States,25.62177,-80.32477,Q937586
123767,Palmetto Estates,1436,FL,Florida,233,US,United States,25.62149,-80.362,Q2443501
123769,Palmona Park,1436,FL,Florida,233,US,United States,26.68646,-81.89648,Q585324
123798,Panama City,1436,FL,Florida,233,US,United States,30.15946,-85.65983,Q852591
123799,Panama City Beach,1436,FL,Florida,233,US,United States,30.17659,-85.80549,Q1075852
123820,Paradise Heights,1436,FL,Florida,233,US,United States,28.62361,-81.54396,Q1898979
123858,Parker,1436,FL,Florida,233,US,United States,30.13104,-85.60326,Q2151756
123871,Parkland,1436,FL,Florida,233,US,United States,26.31008,-80.23727,Q588338
123898,Pasadena Hills,1436,FL,Florida,233,US,United States,28.28001,-82.22438,Q485176
123902,Pasco County,1436,FL,Florida,233,US,United States,28.30674,-82.43887,Q500992
123974,Pebble Creek,1436,FL,Florida,233,US,United States,28.14835,-82.34565,Q2463923
123994,Pelican Bay,1436,FL,Florida,233,US,United States,26.2312,-81.80564,Q2393650
124008,Pembroke Park,1436,FL,Florida,233,US,United States,25.98787,-80.17477,Q995014
124009,Pembroke Pines,1436,FL,Florida,233,US,United States,26.00315,-80.22394,Q370972
124045,Pensacola,1436,FL,Florida,233,US,United States,30.42131,-87.21691,Q486306
124067,Perry,1436,FL,Florida,233,US,United States,30.11766,-83.58274,Q1065467
124180,Pierson,1436,FL,Florida,233,US,United States,29.23942,-81.46563,Q2092541
124217,Pine Castle,1436,FL,Florida,233,US,United States,28.47195,-81.36785,Q1845421
124225,Pine Hills,1436,FL,Florida,233,US,United States,28.55778,-81.4534,Q3294011
124229,Pine Island Center,1436,FL,Florida,233,US,United States,26.61369,-82.11815,Q2093034
124230,Pine Island Ridge,1436,FL,Florida,233,US,United States,26.09481,-80.27394,Q2614034
124237,Pine Manor,1436,FL,Florida,233,US,United States,26.57285,-81.87814,Q2860061
124242,Pine Ridge,1436,FL,Florida,233,US,United States,28.93831,-82.47343,Q2491858
124248,Pinecrest,1436,FL,Florida,233,US,United States,25.66705,-80.30811,Q3286127
124254,Pinellas County,1436,FL,Florida,233,US,United States,27.90268,-82.73955,Q494556
124255,Pinellas Park,1436,FL,Florida,233,US,United States,27.8428,-82.69954,Q2151669
124264,Pinewood,1436,FL,Florida,233,US,United States,25.86898,-80.21699,Q2368129
124313,Placid Lakes,1436,FL,Florida,233,US,United States,27.24144,-81.40702,Q1819857
124345,Plant City,1436,FL,Florida,233,US,United States,28.01888,-82.11469,Q1979443
124346,Plantation,1436,FL,Florida,233,US,United States,26.13421,-80.23184,Q984677
124347,Plantation Mobile Home Park,1436,FL,Florida,233,US,United States,26.70312,-80.13227,Q2199565
124424,Poinciana,1436,FL,Florida,233,US,United States,28.14029,-81.45841,Q2269797
124426,Point Baker,1436,FL,Florida,233,US,United States,30.69019,-87.05358,Q61153
124438,Polk City,1436,FL,Florida,233,US,United States,28.18251,-81.82397,Q941420
124441,Polk County,1436,FL,Florida,233,US,United States,27.94888,-81.69767,Q501043
124460,Pompano Beach,1436,FL,Florida,233,US,United States,26.23786,-80.12477,Q671458
124461,Pompano Beach Highlands,1436,FL,Florida,233,US,United States,26.28286,-80.10699,Q990043
124465,Ponce Inlet,1436,FL,Florida,233,US,United States,29.09637,-80.937,Q2036813
124472,Ponte Vedra Beach,1436,FL,Florida,233,US,United States,30.23969,-81.38564,Q2056505
124502,Port Charlotte,1436,FL,Florida,233,US,United States,26.97617,-82.09064,Q1022776
124516,Port LaBelle,1436,FL,Florida,233,US,United States,26.75645,-81.40508,Q2104752
124524,Port Orange,1436,FL,Florida,233,US,United States,29.13832,-80.99561,Q985301
124529,Port Richey,1436,FL,Florida,233,US,United States,28.27168,-82.71955,Q2152062
124532,Port Saint Joe,1436,FL,Florida,233,US,United States,29.81188,-85.30297,Q721475
124533,Port Saint John,1436,FL,Florida,233,US,United States,28.47695,-80.78867,Q945047
124534,Port Saint Lucie,1436,FL,Florida,233,US,United States,27.29393,-80.35033,Q667749
124535,Port Salerno,1436,FL,Florida,233,US,United States,27.14422,-80.2006,Q2355741
124662,Pretty Bayou,1436,FL,Florida,233,US,United States,30.19659,-85.6966,Q2303781
124680,Princeton,1436,FL,Florida,233,US,United States,25.53844,-80.40894,Q1967546
124703,Progress Village,1436,FL,Florida,233,US,United States,27.9003,-82.36454,Q2034478
124748,Punta Gorda,1436,FL,Florida,233,US,United States,26.92978,-82.04537,Q953543
124749,Punta Gorda Isles,1436,FL,Florida,233,US,United States,26.91756,-82.07842,Q953543
124750,Punta Rassa,1436,FL,Florida,233,US,United States,26.48786,-82.01231,Q2049822
124761,Putnam County,1436,FL,Florida,233,US,United States,29.60863,-81.7443,Q503059
124776,Quail Ridge,1436,FL,Florida,233,US,United States,28.34905,-82.55532,Q604153
124795,Quincy,1436,FL,Florida,233,US,United States,30.58714,-84.58325,Q956246
124971,Redington Beach,1436,FL,Florida,233,US,United States,27.80864,-82.81121,Q2092737
124972,Redington Shores,1436,FL,Florida,233,US,United States,27.82614,-82.82899,Q2092689
125102,Richmond Heights,1436,FL,Florida,233,US,United States,25.63149,-80.36894,Q2421971
125106,Richmond West,1436,FL,Florida,233,US,United States,25.6105,-80.42971,Q652338
125115,Ridge Manor,1436,FL,Florida,233,US,United States,28.5075,-82.17036,Q1927729
125116,Ridge Wood Heights,1436,FL,Florida,233,US,United States,27.28727,-82.51315,Q1940377
125117,Ridgecrest,1436,FL,Florida,233,US,United States,27.8975,-82.80529,Q2311136
125184,River Park,1436,FL,Florida,233,US,United States,27.31421,-80.34727,Q2586312
125216,Riverview,1436,FL,Florida,233,US,United States,27.86614,-82.32648,Q1828539
125221,Riviera Beach,1436,FL,Florida,233,US,United States,26.77534,-80.0581,Q994772
125282,Rock Island,1436,FL,Florida,233,US,United States,26.15509,-80.17699,Q2283144
125311,Rockledge,1436,FL,Florida,233,US,United States,28.35084,-80.72533,Q1979566
125395,Roosevelt Gardens,1436,FL,Florida,233,US,United States,26.14087,-80.18027,Q2387964
125421,Roseland,1436,FL,Florida,233,US,United States,27.83586,-80.49311,Q2021014
125467,Rotonda West,1436,FL,Florida,233,US,United States,26.88368,-82.29009,Q1022745
125491,Royal Palm Beach,1436,FL,Florida,233,US,United States,26.7084,-80.2306,Q2385234
125492,Royal Palm Estates,1436,FL,Florida,233,US,United States,26.68173,-80.12504,Q2253269
125531,Ruskin,1436,FL,Florida,233,US,United States,27.72086,-82.43315,Q2375809
125582,Safety Harbor,1436,FL,Florida,233,US,United States,27.99085,-82.69316,Q952992
125604,Saint Augustine,1436,FL,Florida,233,US,United States,29.89469,-81.31452,Q487988
125605,Saint Augustine Beach,1436,FL,Florida,233,US,United States,29.85053,-81.26535,Q1862368
125606,Saint Augustine Shores,1436,FL,Florida,233,US,United States,29.8108,-81.31035,Q2586369
125607,Saint Augustine South,1436,FL,Florida,233,US,United States,29.84249,-81.31448,Q2586369
125626,Saint Cloud,1436,FL,Florida,233,US,United States,28.2489,-81.28118,Q928701
125640,Saint George,1436,FL,Florida,233,US,United States,28.05641,-82.72788,Q498014
125657,Saint James City,1436,FL,Florida,233,US,United States,26.49758,-82.07843,Q2189154
125667,Saint Johns County,1436,FL,Florida,233,US,United States,29.91218,-81.40989,Q494471
125679,Saint Leo,1436,FL,Florida,233,US,United States,28.33723,-82.25842,Q892570
125684,Saint Lucie County,1436,FL,Florida,233,US,United States,27.38081,-80.44554,Q494564
125707,Saint Pete Beach,1436,FL,Florida,233,US,United States,27.72531,-82.74121,Q57200
125779,Samoset,1436,FL,Florida,233,US,United States,27.46948,-82.54149,Q2198641
125782,Samsula-Spruce Creek,1436,FL,Florida,233,US,United States,29.04932,-81.06192,Q2191137
125786,San Antonio,1436,FL,Florida,233,US,United States,28.33611,-82.27453,Q2065085
125799,San Carlos Park,1436,FL,Florida,233,US,United States,26.4673,-81.80147,Q2443708
125862,Sandalfoot Cove,1436,FL,Florida,233,US,United States,26.33863,-80.1869,Q2418764
125886,Sanford,1436,FL,Florida,233,US,United States,28.80055,-81.27312,Q786770
125894,Sanibel,1436,FL,Florida,233,US,United States,26.44897,-82.02231,Q284242
125924,Santa Rosa County,1436,FL,Florida,233,US,United States,30.6929,-87.01845,Q494500
125938,Sarasota,1436,FL,Florida,233,US,United States,27.33643,-82.53065,Q491540
125939,Sarasota County,1436,FL,Florida,233,US,United States,27.18248,-82.36498,Q501163
125940,Sarasota Springs,1436,FL,Florida,233,US,United States,27.30894,-82.47954,Q2429142
125955,Satellite Beach,1436,FL,Florida,233,US,United States,28.17612,-80.59005,Q2107439
125980,Sawgrass,1436,FL,Florida,233,US,United States,30.19274,-81.37064,Q2598735
126001,Schall Circle,1436,FL,Florida,233,US,United States,26.71562,-80.11504,Q2154715
126054,Scott Lake,1436,FL,Florida,233,US,United States,25.94148,-80.23199,Q2393691
126097,Seaside,1436,FL,Florida,233,US,United States,30.32103,-86.14161,Q612989
126105,Sebastian,1436,FL,Florida,233,US,United States,27.81641,-80.47061,Q986174
126111,Sebring,1436,FL,Florida,233,US,United States,27.49559,-81.44091,Q985173
126127,Seffner,1436,FL,Florida,233,US,United States,27.98363,-82.27565,Q2150258
126144,Seminole,1436,FL,Florida,233,US,United States,27.83975,-82.79121,Q2155162
126147,Seminole County,1436,FL,Florida,233,US,United States,28.71698,-81.2363,Q280596
126150,Seminole Manor,1436,FL,Florida,233,US,United States,26.58368,-80.10032,Q1278180
126184,Sewall's Point,1436,FL,Florida,233,US,United States,27.19949,-80.20227,Q2000252
126204,Shady Hills,1436,FL,Florida,233,US,United States,28.41,-82.54288,Q2428932
126234,Sharpes,1436,FL,Florida,233,US,United States,28.43223,-80.76005,Q606897
126409,Siesta Key,1436,FL,Florida,233,US,United States,27.26785,-82.54526,Q239068
126427,Silver Lake,1436,FL,Florida,233,US,United States,28.84193,-81.79841,Q2570485
126436,Silver Springs,1436,FL,Florida,233,US,United States,29.21664,-82.05759,Q7516348
126437,Silver Springs Shores,1436,FL,Florida,233,US,United States,29.10442,-82.02064,Q2368142
126485,Sky Lake,1436,FL,Florida,233,US,United States,28.45723,-81.39146,Q2015490
126538,Sneads,1436,FL,Florida,233,US,United States,30.70801,-84.92552,Q2092599
126614,South Apopka,1436,FL,Florida,233,US,United States,28.66194,-81.50952,Q2341774
126618,South Bay,1436,FL,Florida,233,US,United States,26.66396,-80.71617,Q2151709
126619,South Beach,1436,FL,Florida,233,US,United States,27.59115,-80.34422,Q2570675
126631,South Bradenton,1436,FL,Florida,233,US,United States,27.4631,-82.58176,Q2463902
126632,South Brooksville,1436,FL,Florida,233,US,United States,28.53582,-82.38403,Q2586277
126645,South Daytona,1436,FL,Florida,233,US,United States,29.16582,-81.0045,Q2151592
126660,South Gate Ridge,1436,FL,Florida,233,US,United States,27.28644,-82.49676,Q3293338
126670,South Highpoint,1436,FL,Florida,233,US,United States,27.91697,-82.71288,Q2325710
126691,South Miami,1436,FL,Florida,233,US,United States,25.7076,-80.29338,Q2154827
126692,South Miami Heights,1436,FL,Florida,233,US,United States,25.59761,-80.38061,Q2421897
126701,South Palm Beach,1436,FL,Florida,233,US,United States,26.58896,-80.03865,Q2152234
126705,South Pasadena,1436,FL,Florida,233,US,United States,27.75503,-82.7376,Q1144348
126707,South Patrick Shores,1436,FL,Florida,233,US,United States,28.20223,-80.6095,Q2464039
126727,South Sarasota,1436,FL,Florida,233,US,United States,27.28616,-82.53288,Q2324252
126742,South Venice,1436,FL,Florida,233,US,United States,27.05311,-82.42426,Q2422092
126764,Southchase,1436,FL,Florida,233,US,United States,28.39306,-81.3834,Q2428888
126765,Southeast Arcadia,1436,FL,Florida,233,US,United States,27.18629,-81.8521,Q2464095
126773,Southgate,1436,FL,Florida,233,US,United States,27.3081,-82.50982,Q2428901
126790,Southwest Ranches,1436,FL,Florida,233,US,United States,26.0587,-80.33727,Q2152085
126860,Spring Hill,1436,FL,Florida,233,US,United States,28.47688,-82.52546,Q2321558
126889,Springfield,1436,FL,Florida,233,US,United States,30.15326,-85.61132,Q2156221
126926,St. Johns,1436,FL,Florida,233,US,United States,30.0815,-81.54774,Q2141628
126930,St. Petersburg,1436,FL,Florida,233,US,United States,27.77086,-82.67927,Q49236
126986,Starke,1436,FL,Florida,233,US,United States,29.94413,-82.10983,Q2047919
127018,Steinhatchee,1436,FL,Florida,233,US,United States,29.67106,-83.38764,Q7606887
127066,Stock Island,1436,FL,Florida,233,US,United States,24.56709,-81.73842,Q1194668
127142,Stuart,1436,FL,Florida,233,US,United States,27.19755,-80.25283,Q988744
127176,Sugarmill Woods,1436,FL,Florida,233,US,United States,28.73221,-82.50621,Q2375942
127229,Sumter County,1436,FL,Florida,233,US,United States,28.70482,-82.081,Q503889
127234,Sun City Center,1436,FL,Florida,233,US,United States,27.71809,-82.35176,Q2375873
127246,Suncoast Estates,1436,FL,Florida,233,US,United States,26.71174,-81.86897,Q2570630
127256,Sunny Isles Beach,1436,FL,Florida,233,US,United States,25.95065,-80.12282,Q2151584
127267,Sunrise,1436,FL,Florida,233,US,United States,26.13397,-80.1131,Q506375
127271,Sunset,1436,FL,Florida,233,US,United States,25.70594,-80.35228,Q2019785
127277,Sunshine Ranches,1436,FL,Florida,233,US,United States,26.04592,-80.32894,Q956268
127287,Surfside,1436,FL,Florida,233,US,United States,25.87843,-80.1256,Q922840
127318,Suwannee County,1436,FL,Florida,233,US,United States,30.19561,-82.99149,Q501036
127340,Sweetwater,1436,FL,Florida,233,US,United States,25.76343,-80.37311,Q2180831
127371,Taft,1436,FL,Florida,233,US,United States,28.42973,-81.36507,Q2586378
127391,Tallahassee,1436,FL,Florida,233,US,United States,30.43826,-84.28073,Q37043
127405,Tamarac,1436,FL,Florida,233,US,United States,26.21286,-80.24977,Q921201
127406,Tamiami,1436,FL,Florida,233,US,United States,25.75871,-80.39839,Q2155610
127407,Tampa,1436,FL,Florida,233,US,United States,27.94752,-82.45843,Q49255
127412,Tangelo Park,1436,FL,Florida,233,US,United States,28.45584,-81.4459,Q2570608
127414,Tangerine,1436,FL,Florida,233,US,United States,28.76499,-81.63063,Q2360121
127433,Tarpon Springs,1436,FL,Florida,233,US,United States,28.14612,-82.75677,Q647103
127442,Tavares,1436,FL,Florida,233,US,United States,28.80416,-81.72563,Q2152335
127443,Tavernier,1436,FL,Florida,233,US,United States,25.01152,-80.51506,Q2143708
127451,Taylor County,1436,FL,Florida,233,US,United States,30.01957,-83.61897,Q503064
127458,Taylor Creek,1436,FL,Florida,233,US,United States,27.21671,-80.7895,Q2586331
127481,Tedder,1436,FL,Florida,233,US,United States,26.28425,-80.12227,Q2329177
127503,Temple Terrace,1436,FL,Florida,233,US,United States,28.0353,-82.38926,Q2152032
127513,Tequesta,1436,FL,Florida,233,US,United States,26.96811,-80.12865,Q2010407
127516,Terra Mar,1436,FL,Florida,233,US,United States,26.21619,-80.09532,Q2500831
127553,The Acreage,1436,FL,Florida,233,US,United States,26.79404,-80.26749,Q7712274
127556,The Crossings,1436,FL,Florida,233,US,United States,25.67066,-80.40117,Q2429105
127559,The Hammocks,1436,FL,Florida,233,US,United States,25.67149,-80.4445,Q2428996
127562,The Meadows,1436,FL,Florida,233,US,United States,27.36171,-82.46898,Q2570555
127565,The Villages,1436,FL,Florida,233,US,United States,28.93408,-81.95994,Q3240968
127597,Thonotosassa,1436,FL,Florida,233,US,United States,28.06141,-82.30231,Q2401684
127612,Three Lakes,1436,FL,Florida,233,US,United States,25.64205,-80.39839,Q1840900
127614,Three Oaks,1436,FL,Florida,233,US,United States,26.47008,-81.79397,Q940866
127633,Tice,1436,FL,Florida,233,US,United States,26.67479,-81.81508,Q2570502
127638,Tierra Verde,1436,FL,Florida,233,US,United States,27.69197,-82.72343,Q2752400
127644,Tiger Point,1436,FL,Florida,233,US,United States,30.37853,-87.05552,Q1444136
127657,Timber Pines,1436,FL,Florida,233,US,United States,28.47028,-82.60316,Q2464144
127685,Titusville,1436,FL,Florida,233,US,United States,28.61222,-80.80755,Q983779
127756,Town 'n' Country,1436,FL,Florida,233,US,United States,28.01057,-82.57732,Q3294005
127790,Treasure Island,1436,FL,Florida,233,US,United States,27.76919,-82.76899,Q954164
127801,Trenton,1436,FL,Florida,233,US,United States,29.61329,-82.81762,Q2152875
127824,Trinity,1436,FL,Florida,233,US,United States,28.18085,-82.68177,Q2571366
127928,Twin Lakes,1436,FL,Florida,233,US,United States,26.18092,-80.16005,Q2740043
127946,Tyndall Air Force Base,1436,FL,Florida,233,US,United States,30.08535,-85.60731,Q2537865
127961,Umatilla,1436,FL,Florida,233,US,United States,28.92943,-81.66563,Q2152884
127989,Union County,1436,FL,Florida,233,US,United States,30.04384,-82.37144,Q501078
128009,Union Park,1436,FL,Florida,233,US,United States,28.56806,-81.28618,Q2422012
128025,University,1436,FL,Florida,233,US,United States,28.07389,-82.43902,Q3612349
128031,University Park,1436,FL,Florida,233,US,United States,25.74649,-80.36755,Q2331187
128044,Upper Grand Lagoon,1436,FL,Florida,233,US,United States,30.16326,-85.74076,Q304175
128120,Valparaiso,1436,FL,Florida,233,US,United States,30.50853,-86.50273,Q614148
128122,Valrico,1436,FL,Florida,233,US,United States,27.93789,-82.23644,Q1924472
128123,Vamo,1436,FL,Florida,233,US,United States,27.222,-82.49787,Q2570584
128170,Venice,1436,FL,Florida,233,US,United States,27.09978,-82.45426,Q57325
128173,Venice Gardens,1436,FL,Florida,233,US,United States,27.07311,-82.4076,Q2429089
128198,Vero Beach,1436,FL,Florida,233,US,United States,27.63864,-80.39727,Q969026
128199,Vero Beach South,1436,FL,Florida,233,US,United States,27.61638,-80.41308,Q2463887
128206,Verona Walk,1436,FL,Florida,233,US,United States,26.08412,-81.67985,Q1569520
128236,Viera East,1436,FL,Florida,233,US,United States,28.26234,-80.71449,Q6161852
128237,Viera West,1436,FL,Florida,233,US,United States,28.24504,-80.7338,Q2884409
128255,Villages of Oriole,1436,FL,Florida,233,US,United States,26.4623,-80.15282,Q2056388
128256,Villano Beach,1436,FL,Florida,233,US,United States,29.93858,-81.30202,Q2056388
128257,Villas,1436,FL,Florida,233,US,United States,26.55035,-81.8687,Q2140078
128275,Vineyards,1436,FL,Florida,233,US,United States,26.22373,-81.72798,Q2570697
128291,Virginia Gardens,1436,FL,Florida,233,US,United States,25.81038,-80.30227,Q2232282
128303,Volusia County,1436,FL,Florida,233,US,United States,29.06345,-81.14857,Q494541
128314,Wabasso Beach,1436,FL,Florida,233,US,United States,27.76475,-80.39894,Q2451277
128333,Wahneta,1436,FL,Florida,233,US,United States,27.9528,-81.72702,Q1940053
128365,Wakulla County,1436,FL,Florida,233,US,United States,30.14777,-84.37561,Q505417
128371,Waldo,1436,FL,Florida,233,US,United States,29.78969,-82.16732,Q2152499
128396,Wallace,1436,FL,Florida,233,US,United States,30.67741,-87.17997,Q1502554
128437,Walton County,1436,FL,Florida,233,US,United States,30.61847,-86.17152,Q503455
128468,Warm Mineral Springs,1436,FL,Florida,233,US,United States,27.05978,-82.26009,Q2375983
128512,Warrington,1436,FL,Florida,233,US,United States,30.38409,-87.27497,Q2119312
128554,Washington County,1436,FL,Florida,233,US,United States,30.61059,-85.66533,Q263418
128584,Washington Park,1436,FL,Florida,233,US,United States,26.13259,-80.18116,Q1850315
128618,Watertown,1436,FL,Florida,233,US,United States,30.19245,-82.61457,Q2453592
128645,Wauchula,1436,FL,Florida,233,US,United States,27.54726,-81.81147,Q990844
128747,Wedgefield,1436,FL,Florida,233,US,United States,28.48778,-81.07729,Q2423796
128755,Weeki Wachee Gardens,1436,FL,Florida,233,US,United States,28.53361,-82.62954,Q2059287
128763,Wekiwa Springs,1436,FL,Florida,233,US,United States,28.69861,-81.42563,Q2635000
128772,Wellborn,1436,FL,Florida,233,US,United States,30.23106,-82.81957,Q7981184
128776,Wellington,1436,FL,Florida,233,US,United States,26.65868,-80.24144,Q992652
128809,Wesley Chapel,1436,FL,Florida,233,US,United States,28.23973,-82.32787,Q1916993
129011,West and East Lealman,1436,FL,Florida,233,US,United States,27.81993,-82.68944,Q2463088
128831,West Bradenton,1436,FL,Florida,233,US,United States,27.50254,-82.61399,Q1957728
128855,West DeLand,1436,FL,Florida,233,US,United States,29.01582,-81.33312,Q2563735
128876,West Gate,1436,FL,Florida,233,US,United States,26.70257,-80.0981,Q3567420
128898,West Hollywood,1436,FL,Florida,233,US,United States,26.02065,-80.18394,Q7985407
128920,West Little River,1436,FL,Florida,233,US,United States,25.85704,-80.23699,Q2428840
128927,West Melbourne,1436,FL,Florida,233,US,United States,28.07168,-80.65339,Q530067
128930,West Miami,1436,FL,Florida,233,US,United States,25.76343,-80.29616,Q2152253
128947,West Palm Beach,1436,FL,Florida,233,US,United States,26.71534,-80.05337,Q163749
128949,West Park,1436,FL,Florida,233,US,United States,25.98454,-80.19894,Q2155989
128952,West Pensacola,1436,FL,Florida,233,US,United States,30.42659,-87.27969,Q2375845
128954,West Perrine,1436,FL,Florida,233,US,United States,25.60594,-80.36283,Q2429009
128974,West Samoset,1436,FL,Florida,233,US,United States,27.46948,-82.55676,Q2464032
128998,West Vero Corridor,1436,FL,Florida,233,US,United States,27.63775,-80.48576,Q2371316
129017,Westchase,1436,FL,Florida,233,US,United States,28.05502,-82.60982,Q2464007
129018,Westchester,1436,FL,Florida,233,US,United States,25.75482,-80.32727,Q1362680
129058,Weston,1436,FL,Florida,233,US,United States,26.10037,-80.39977,Q990644
129075,Westview,1436,FL,Florida,233,US,United States,25.88204,-80.24199,Q1988038
129088,Westwood Lake,1436,FL,Florida,233,US,United States,25.72927,-80.37283,Q2428849
129094,Wewahitchka,1436,FL,Florida,233,US,United States,30.1127,-85.20047,Q1998323
129123,Whiskey Creek,1436,FL,Florida,233,US,United States,26.57258,-81.89009,Q1850186
129130,White City,1436,FL,Florida,233,US,United States,27.37393,-80.33394,Q2586257
129193,Whitfield,1436,FL,Florida,233,US,United States,27.41171,-82.56593,Q2295719
129236,Wildwood,1436,FL,Florida,233,US,United States,28.86542,-82.04058,Q2152326
129265,Williamsburg,1436,FL,Florida,233,US,United States,28.41445,-81.44285,Q2139218
129296,Williston,1436,FL,Florida,233,US,United States,29.38747,-82.44677,Q2152341
129300,Williston Highlands,1436,FL,Florida,233,US,United States,29.34052,-82.5415,Q1852029
129307,Willow Oak,1436,FL,Florida,233,US,United States,27.91614,-82.01786,Q2422054
129347,Wilton Manors,1436,FL,Florida,233,US,United States,26.16036,-80.13893,Q940061
129348,Wimauma,1436,FL,Florida,233,US,United States,27.71253,-82.29898,Q1843074
129370,Windermere,1436,FL,Florida,233,US,United States,28.49556,-81.5348,Q1893545
129432,Winston,1436,FL,Florida,233,US,United States,28.03169,-82.01481,Q2863697
129437,Winter Beach,1436,FL,Florida,233,US,United States,27.7192,-80.42061,Q2570495
129438,Winter Garden,1436,FL,Florida,233,US,United States,28.56528,-81.58618,Q2152414
129440,Winter Haven,1436,FL,Florida,233,US,United States,28.02224,-81.73286,Q1778769
129441,Winter Park,1436,FL,Florida,233,US,United States,28.6,-81.33924,Q986641
129442,Winter Springs,1436,FL,Florida,233,US,United States,28.69889,-81.30812,Q2152383
129538,Woodlawn Beach,1436,FL,Florida,233,US,United States,30.38825,-86.9908,Q2816105
129570,Woodville,1436,FL,Florida,233,US,United States,30.31409,-84.2474,Q2058213
129605,Wright,1436,FL,Florida,233,US,United States,30.45575,-86.63829,Q2423767
129653,Yalaha,1436,FL,Florida,233,US,United States,28.7386,-81.80869,Q2285845
129716,Youngstown,1436,FL,Florida,233,US,United States,30.36436,-85.43826,Q8058637
129732,Yulee,1436,FL,Florida,233,US,United States,30.6319,-81.60649,Q540124
129747,Zellwood,1436,FL,Florida,233,US,United States,28.73111,-81.60118,Q2048252
129749,Zephyrhills,1436,FL,Florida,233,US,United States,28.23362,-82.18119,Q2155683
129750,Zephyrhills North,1436,FL,Florida,233,US,United States,28.25172,-82.16557,Q2586388
129751,Zephyrhills South,1436,FL,Florida,233,US,United States,28.21492,-82.18873,Q2428912
129752,Zephyrhills West,1436,FL,Florida,233,US,United States,28.23081,-82.20556,Q1865961
129760,Zolfo Springs,1436,FL,Florida,233,US,United States,27.49337,-81.79592,Q2018745
